55165,ONEWEB-0624,2023,109.72,148.0,+,87.9,Active,1,LEO,USA,UK,Commercial,Communications,Falcon,1 55165U 23004AB  24105.18601358  .00000440  00000+0  11865-2 0  9995,2 55165  87.8973 148.7059 0002168  89.7051 270.4326 13.12441329 63909,13.12441329,0.0002168,LEO
55166,ONEWEB-0625,2023,109.29,148.0,+,87.92,Active,1,LEO,USA,UK,Commercial,Communications,Falcon,1 55166U 23004AC  24104.63913836 -.00000022  00000+0 -89493-4 0  9994,2 55166  87.9224 163.9955 0001756  92.3489 267.7843 13.17650006 62946,13.17650006,0.0001756,LEO
55167,ONEWEB-0626,2023,109.29,148.0,+,87.92,Active,1,LEO,USA,UK,Commercial,Communications,Falcon,1 55167U 23004AD  24105.16120215  .00000075  00000+0  16047-3 0  9995,2 55167  87.9220 163.8933 0002504 107.9922 252.1483 13.17652221 63013,13.17652221,0.0002504,LEO
55168,ONEWEB-0627,2023,109.29,148.0,+,87.92,Active,1,LEO,USA,UK,Commercial,Communications,Falcon,1 55168U 23004AE  24104.69450829  .00000070  00000+0  14668-3 0  9992,2 55168  87.9222 163.9868 0002792  91.7070 268.4381 13.17649721 62957,13.17649721,0.0002792,LEO
55169,ONEWEB-0628,2023,109.72,148.0,+,87.9,Active,1,LEO,USA,UK,Commercial,Communications,Falcon,1 55169U 23004AF  24104.63011640  .00000021  00000+0  23212-4 0  9993,2 55169  87.8972 148.8057 0002369  83.5073 276.6325 13.12443159 63810,13.12443159,0.0002369,LEO
55170,ONEWEB-0629,2023,109.29,-1.0,+,87.92,Active,0,LEO,USA,UK,Unknown,Unknown,Unknown,1 55170U 23004AG  24105.52506609  .00000013  00000+0 -35857-6 0  9990,2 55170  87.9215 163.8157 0001971  82.4418 277.6938 13.17648049 63068,13.17648049,0.0001971,LEO
55171,ONEWEB-0631,2023,109.2,-1.0,+,87.91,Active,0,LEO,USA,UK,Unknown,Unknown,Unknown,1 55171U 23004AH  24105.12932244 -.00000013  00000+0 -65659-4 0  9997,2 55171  87.9144 133.4772 0002662 101.3575 258.7856 13.18685047 65026,13.18685047,0.0002662,LEO
55172,ONEWEB-0709,2023,109.8,-1.0,+,87.9,Active,0,LEO,USA,UK,Unknown,Unknown,Unknown,1 55172U 23004AJ  24105.18264177  .00000413  00000+0  11301-2 0  9992,2 55172  87.9025 179.0237 0002755 122.3241 237.8154 13.11420219 61816,13.11420219,0.0002755,LEO
